SL-12 R/B(2)            
1 15772U 85042D   26170.47378012  .00000004  00000+0  23268-4 0  9997
2 15772  71.1075 232.6855 0036433 324.2806  46.9120 14.22006380128863
SL-14 R/B               
1 15945U 85069B   26170.72709672  .00000355  00000+0  37313-4 0  9991
2 15945  82.5273 288.9770 0017976 210.2980 149.7200 14.86517133187992
SL-16 R/B               
1 16182U 85097B   26170.67623816  .00000054  00000+0  51162-4 0  9999
2 16182  71.0034 285.8375 0005391 105.9503 355.1024 14.16610183101670
SL-14 R/B               
1 16496U 86006B   26170.47410478  .00000429  00000+0  42891-4 0  9999
2 16496  82.5261 163.9611 0074852 295.7544  63.5960 14.86947529164332
COSMOS 1743             
1 16719U 86034A   26170.50947803  .00041851  00000+0  39051-3 0  9996
2 16719  82.5283 326.2624 0004059 261.3044  98.7757 15.67125452196150
SL-14 R/B               
1 16792U 86046B   26170.57753320  .00000300  00000+0  31782-4 0  9994
2 16792  82.4818 343.9163 0021649 249.9745 109.9141 14.85672336141533
SL-14 R/B               
1 16882U 86055B   26170.70517713  .00000288  00000+0  30328-4 0  9993
2 16882  82.5202  30.7655 0018824 359.4414  65.7714 14.85724532134510
AJISAI (EGS)            
1 16908U 86061A   26170.85479818 -.00000100  00000+0 -19815-4 0  9991
2 16908  50.0069 139.1916 0011201 187.3758 192.2867 12.44516779480722
SL-14 R/B               
1 17567U 87024B   26170.70857815  .00000276  00000+0  28599-4 0  9995
2 17567  82.5280 356.8803 0016730 284.1291  75.8066 14.86214416103283
COSMOS 1833             
1 17589U 87027A   26170.58593613  .00000336  00000+0  20496-3 0  9995
2 17589  70.9185 111.8260 0022872  51.1336 309.1821 14.13051879 24718
SL-16 R/B               
1 17590U 87027B   26170.68656647 -.00000148  00000+0 -49562-4 0  9994
2 17590  71.0032  61.5621 0006599 309.4791  50.5748 14.17171196 29794
SL-14 R/B               
1 17912U 87038B   26170.55392977  .00000255  00000+0  26660-4 0  9994
2 17912  82.5006 200.8430 0019110 183.2899 176.8194 14.85446292 94354
COSMOS 1844             
1 17973U 87041A   26170.36996450 -.00000120  00000+0 -36993-4 0  9993
2 17973  70.8965 179.7029 0032780 232.3780 127.4365 14.14567449 17960
SL-14 R/B               
1 18153U 87055B   26170.71503381  .00000303  00000+0  31989-4 0  9996
2 18153  82.4994 252.8463 0021531  39.7161 320.5627 14.85712572 85083
COSMOS 1867             
1 18187U 87060A   26170.71808102 -.00000057  00000+0  16369-4 0  9990
2 18187  65.0115  20.9707 0016576 282.1440  77.7787 14.31515946 34544
SL-14 R/B               
1 18749U 88001B   26170.51515442  .00000303  00000+0  32199-4 0  9992
2 18749  82.5133  99.5836 0016438 261.0859  98.8497 14.85610915 57148
COSMOS 1933             
1 18958U 88020A   26170.47533756  .00003019  00000+0  14397-3 0  9994
2 18958  82.5125 150.1692 0003792 177.6779 182.4473 15.18726123 65674
SL-3 R/B                
1 19046U 88032B   26170.87491509  .00003094  00000+0  14234-3 0  9992
2 19046  97.5258 153.9127 0023999 234.9743 124.9240 15.20856352 67631
SL-16 R/B               
1 19120U 88039B   26170.37564802  .00000107  00000+0  73254-4 0  9994
2 19120  71.0134 213.5307 0022121 189.8886 170.1808 14.19629924972817
COSMOS 1953             
1 19210U 88050A   26170.70022495  .00006074  00000+0  20757-3 0  9999
2 19210  82.5073  55.5002 0012281 118.5458 241.7020 15.30006662 53376
SL-8 R/B                
1 19257U 88053B   26170.72571174  .00000142  00000+0  54324-4 0  9996
2 19257  74.0482 284.3779 0019172  78.7652  27.7158 14.38968241991270
COSMOS 1975             
1 19573U 88093A   26170.57524610  .00006219  00000+0  21694-3 0  9991
2 19573  82.5191  15.2992 0011557 163.4813 196.6806 15.29351751 34974
SL-14 R/B               
1 19574U 88093B   26170.35466061  .00000344  00000+0  36587-4 0  9994
2 19574  82.5313 306.6096 0022013  63.7576 326.1995 14.85743279 16116
SL-16 R/B               
1 19650U 88102B   26170.68935892 -.00000017  00000+0  15802-4 0  9994
2 19650  71.0000 296.8737 0015642 221.8062 138.1868 14.16164018941339
INTERCOSMOS 24          
1 20261U 89080A   26170.71685513  .00000683  00000+0  19241-3 0  9994
2 20261  82.6063  37.9992 1188339  56.0417 314.7961 12.59665554679644
SL-14 R/B               
1 20262U 89080C   26170.56221938  .00000209  00000+0  62505-4 0  9991
2 20262  82.5935 107.7820 1228648 311.9660  38.2869 12.50571758672886
DELTA 1 R/B             
1 20323U 89089B   26170.49539296  .00000208  00000+0  59842-4 0  9998
2 20323  97.0636   1.6843 0069444 159.7317 200.6662 14.50732474910497
ARIANE 40 R/B           
1 20443U 90005H   26170.68524797  .00000169  00000+0  67302-4 0  9998
2 20443  98.2958 228.2237 0008868 255.7444 104.2760 14.39928527907481
DELTA 2 R/B(1)          
1 20453U 90008B   26170.54471972  .00075176  00000+0  54892-3 0  9992
2 20453  35.5985 219.8829 0064790 137.0708 223.5112 15.69141192942079
COSMOS 2058             
1 20465U 90010A   26170.78260831  .00003338  00000+0  19249-3 0  9992
2 20465  82.4691 306.7953 0008908 350.3813   9.7245 15.12031238957666
