OBJECT_NAME,OBJECT_ID,EPOCH,MEAN_MOTION,ECCENTRICITY,INCLINATION,RA_OF_ASC_NODE,ARG_OF_PERICENTER,MEAN_ANOMALY,EPHEMERIS_TYPE,CLASSIFICATION_TYPE,NORAD_CAT_ID,ELEMENT_SET_NO,REV_AT_EPOCH,BSTAR,MEAN_MOTION_DOT,MEAN_MOTION_DDOT
SL-12 R/B(2),1985-042D,2026-06-19T11:22:14.602368,14.22006380,.00364331,71.1075,232.6855,324.2806,46.9120,0,U,15772,999,12886,.23267536E-4,.4E-7,0
SL-14 R/B,1985-069B,2026-06-19T17:27:01.156608,14.86517133,.0017976,82.5273,288.9770,210.2980,149.7200,0,U,15945,999,18799,.37313E-4,.355E-5,0
SL-16 R/B,1985-097B,2026-06-19T16:13:46.977024,14.16610183,.0005391,71.0034,285.8375,105.9503,355.1024,0,U,16182,999,10167,.51162E-4,.54E-6,0
SL-14 R/B,1986-006B,2026-06-19T11:22:42.652992,14.86947529,.00748526,82.5261,163.9611,295.7544,63.5960,0,U,16496,999,16433,.42890818E-4,.429E-5,0
COSMOS 1743,1986-034A,2026-06-19T12:13:38.901792,15.67125452,.00040592,82.5283,326.2624,261.3044,98.7757,0,U,16719,999,19615,.39051424E-3,.41851E-3,0
SL-14 R/B,1986-046B,2026-06-19T13:51:38.868480,14.85672336,.00216496,82.4818,343.9163,249.9745,109.9141,0,U,16792,999,14153,.31782448E-4,.3E-5,0
SL-14 R/B,1986-055B,2026-06-19T16:55:27.304032,14.85724532,.0018824,82.5202,30.7655,359.4414,65.7714,0,U,16882,999,13451,.30328E-4,.288E-5,0
AJISAI (EGS),1986-061A,2026-06-19T20:30:54.562752,12.44516779,.0011201,50.0069,139.1916,187.3758,192.2867,0,U,16908,999,48072,-.19815E-4,-.1E-5,0
SL-14 R/B,1987-024B,2026-06-19T17:00:21.152160,14.86214416,.001673,82.5280,356.8803,284.1291,75.8066,0,U,17567,999,10328,.28599E-4,.276E-5,0
COSMOS 1833,1987-027A,2026-06-19T14:03:44.881632,14.13051879,.0022872,70.9185,111.8260,51.1336,309.1821,0,U,17589,999,2471,.20496432E-3,.336E-5,0
SL-16 R/B,1987-027B,2026-06-19T16:28:39.343008,14.17171196,.0006599,71.0032,61.5621,309.4791,50.5748,0,U,17590,999,2979,-.49562E-4,-.148E-5,0
SL-14 R/B,1987-038B,2026-06-19T13:17:39.532128,14.85446292,.00191108,82.5006,200.8430,183.2899,176.8194,0,U,17912,999,9435,.26660315E-4,.255E-5,0
COSMOS 1844,1987-041A,2026-06-19T08:52:44.932800,14.14567449,.00327806,70.8965,179.7029,232.3780,127.4365,0,U,17973,999,1796,-.36992572E-4,-.12E-5,0
SL-14 R/B,1987-055B,2026-06-19T17:09:38.921184,14.85712572,.0021531,82.4994,252.8463,39.7161,320.5627,0,U,18153,999,8508,.31989E-4,.303E-5,0
COSMOS 1867,1987-060A,2026-06-19T17:14:02.200128,14.31515946,.0016576,65.0115,20.9707,282.1440,77.7787,0,U,18187,999,3454,.16369E-4,-.57E-6,0
SL-14 R/B,1988-001B,2026-06-19T12:21:49.341888,14.85610915,.00164388,82.5133,99.5836,261.0859,98.8497,0,U,18749,999,5714,.32199034E-4,.303E-5,0
COSMOS 1933,1988-020A,2026-06-19T11:24:29.165184,15.18726123,.00037924,82.5125,150.1692,177.6779,182.4473,0,U,18958,999,6567,.14396504E-3,.3019E-4,0
SL-3 R/B,1988-032B,2026-06-19T20:59:52.663776,15.20856352,.0023999,97.5258,153.9127,234.9743,124.9240,0,U,19046,999,6763,.14234E-3,.3094E-4,0
SL-16 R/B,1988-039B,2026-06-19T09:00:55.988928,14.19629924,.00221216,71.0134,213.5307,189.8886,170.1808,0,U,19120,999,97281,.73254232E-4,.107E-5,0
COSMOS 1953,1988-050A,2026-06-19T16:48:19.435680,15.30006662,.0012281,82.5073,55.5002,118.5458,241.7020,0,U,19210,999,5337,.20757E-3,.6074E-4,0
SL-8 R/B,1988-053B,2026-06-19T17:25:01.494336,14.38968241,.0019172,74.0482,284.3779,78.7652,27.7158,0,U,19257,999,99127,.54324E-4,.142E-5,0
COSMOS 1975,1988-093A,2026-06-19T13:48:21.263040,15.29351751,.0011557,82.5191,15.2992,163.4813,196.6806,0,U,19573,999,3497,.2169423E-3,.6219E-4,0
SL-14 R/B,1988-093B,2026-06-19T08:30:42.676704,14.85743279,.00220131,82.5313,306.6096,63.7576,326.1995,0,U,19574,999,1611,.36587448E-4,.344E-5,0
SL-16 R/B,1988-102B,2026-06-19T16:32:40.610688,14.16164018,.0015642,71.0000,296.8737,221.8062,138.1868,0,U,19650,999,94133,.15802E-4,-.17E-6,0
INTERCOSMOS 24,1989-080A,2026-06-19T17:12:16.283232,12.59665554,.1188339,82.6063,37.9992,56.0417,314.7961,0,U,20261,999,67964,.19241E-3,.683E-5,0
SL-14 R/B,1989-080C,2026-06-19T13:29:35.754432,12.50571758,.12286481,82.5935,107.7820,311.9660,38.2869,0,U,20262,999,67288,.62504842E-4,.209E-5,0
DELTA 1 R/B,1989-089B,2026-06-19T11:53:21.951744,14.50732474,.00694443,97.0636,1.6843,159.7317,200.6662,0,U,20323,999,91049,.59841829E-4,.208E-5,0
ARIANE 40 R/B,1990-005H,2026-06-19T16:26:45.424608,14.39928527,.0008868,98.2958,228.2237,255.7444,104.2760,0,U,20443,999,90748,.67302E-4,.169E-5,0
DELTA 2 R/B(1),1990-008B,2026-06-19T13:04:23.783808,15.69141192,.00647908,35.5985,219.8829,137.0708,223.5112,0,U,20453,999,94207,.54891803E-3,.75176E-3,0
COSMOS 2058,1990-010A,2026-06-19T18:46:57.357984,15.12031238,.0008908,82.4691,306.7953,350.3813,9.7245,0,U,20465,999,95766,.19249E-3,.3338E-4,0
